NORAD_CAT_ID,OBJECT_NAME,OBJECT_TYPE,EPOCH,MEAN_MOTION,ECCENTRICITY,INCLINATION,RA_OF_ASC_NODE,ARG_OF_PERICENTER,MEAN_ANOMALY,BSTAR,MEAN_MOTION_DOT,MEAN_MOTION_DDOT,TLE_LINE0,TLE_LINE1,TLE_LINE2,SEMIMAJOR_AXIS,PERIOD,APOGEE,PERIGEE,DECAYED
55919.0,STARLINK-5871,PAYLOAD,2024-01-12 18:29:31,14.98325863,0.0002819,70.0005,128.5867,264.2588,95.825,4.1458e-05,4.02e-06,0.0,0 STARLINK-5871,1 55919U 23037F   24012.77050027  .00000402  00000-0  41458-4 0  9993,2 55919  70.0005 128.5867 0002819 264.2588  95.8250 14.98325863 45956,6950.206,96.107,574.03,570.111,0.0
55919.0,STARLINK-5871,PAYLOAD,2024-01-13 13:43:07,14.98328951,0.000286,70.0002,126.5668,265.4422,94.641,3.1482e-05,2.83e-06,0.0,0 STARLINK-5871,1 55919U 23037F   24013.57161944  .00000283  00000-0  31482-4 0  9996,2 55919  70.0002 126.5668 0002860 265.4422  94.6410 14.98328951 45738,6950.196,96.107,574.049,570.073,0.0
55919.0,STARLINK-5871,PAYLOAD,2024-01-14 12:09:00,14.98332959,0.0002891,70.0003,124.2106,263.3899,96.6931,0.00017861,2.039e-05,0.0,0 STARLINK-5871,1 55919U 23037F   24014.50625251  .00002039  00000-0  17861-3 0  9991,2 55919  70.0003 124.2106 0002891 263.3899  96.6931 14.98332959 46217,6950.184,96.107,574.058,570.039,0.0
55919.0,STARLINK-5871,PAYLOAD,2024-01-14 13:45:08,14.98334107,0.0002877,70.0003,124.0422,262.7797,97.3035,0.00018882,2.161e-05,0.0,0 STARLINK-5871,1 55919U 23037F   24014.57301147  .00002161  00000-0  18882-3 0  9993,2 55919  70.0003 124.0422 0002877 262.7797  97.3035 14.98334107 45882,6950.18,96.107,574.045,570.046,0.0
55919.0,STARLINK-5871,PAYLOAD,2024-01-14 16:57:23,14.98341588,0.0002822,70.0004,123.7063,261.687,98.3969,0.00021572,2.483e-05,0.0,0 STARLINK-5871,1 55919U 23037F   24014.70652523  .00002483  00000-0  21572-3 0  9992,2 55919  70.0004 123.7063 0002822 261.6870  98.3969 14.98341588 46249,6950.157,96.106,573.983,570.061,0.0
55919.0,STARLINK-5871,PAYLOAD,2024-01-15 10:34:53,14.98328508,0.0002386,70.0027,121.8588,228.4492,131.6463,8.0825e-05,8.72e-06,0.0,0 STARLINK-5871,1 55919U 23037F   24015.44089412  .00000872  00000-0  80825-4 0  9992,2 55919  70.0027 121.8588 0002386 228.4492 131.6463 14.98328508 46350,6950.198,96.107,573.721,570.404,0.0
55919.0,STARLINK-5871,PAYLOAD,2024-01-15 13:47:09,14.98329025,0.0002491,70.0018,121.521,240.4365,119.6546,5.5336e-05,5.67e-06,0.0,0 STARLINK-5871,1 55919U 23037F   24015.57441464  .00000567  00000-0  55336-4 0  9995,2 55919  70.0018 121.5210 0002491 240.4365 119.6546 14.98329025 46037,6950.196,96.107,573.792,570.33,0.0
55919.0,STARLINK-5871,PAYLOAD,2024-01-15 16:59:25,14.98326159,0.0002317,70.002,121.1837,239.3583,120.7348,5.7952e-05,5.99e-06,0.0,0 STARLINK-5871,1 55919U 23037F   24015.70793667  .00000599  00000-0  57952-4 0  9996,2 55919  70.0020 121.1837 0002317 239.3583 120.7348 14.98326159 46057,6950.205,96.107,573.68,570.459,0.0
55919.0,STARLINK-5871,PAYLOAD,2024-01-16 12:13:02,14.9833085,0.0002445,70.0013,119.1627,250.7697,109.3198,-0.00010371,-1.33e-05,0.0,0 STARLINK-5871,1 55919U 23037F   24016.50905728 -.00001330  00000-0 -10371-3 0  9997,2 55919  70.0013 119.1627 0002445 250.7697 109.3198 14.98330850 46518,6950.19,96.107,573.755,570.356,0.0
55919.0,STARLINK-5871,PAYLOAD,2024-01-16 13:49:10,14.98330933,0.000247,70.0012,118.9944,251.2733,108.8158,-0.00010243,-1.315e-05,0.0,0 STARLINK-5871,1 55919U 23037F   24016.57581714 -.00001315  00000-0 -10243-3 0  9990,2 55919  70.0012 118.9944 0002470 251.2733 108.8158 14.98330933 46186,6950.19,96.107,573.772,570.338,0.0
55919.0,STARLINK-5871,PAYLOAD,2024-01-16 17:01:26,14.98335499,0.0002671,70.0004,118.6561,266.5066,93.5788,-6.2922e-05,-8.44e-06,0.0,0 STARLINK-5871,1 55919U 23037F   24016.70933389 -.00000844  00000-0 -62922-4 0  9992,2 55919  70.0004 118.6561 0002671 266.5066  93.5788 14.98335499 46204,6950.176,96.107,573.897,570.184,0.0
55919.0,STARLINK-5871,PAYLOAD,2024-01-17 12:15:03,14.98330348,0.000204,70.0005,116.6348,256.9289,103.1642,-8.9624e-05,-1.162e-05,0.0,0 STARLINK-5871,1 55919U 23037F   24017.51045820 -.00001162  00000-0 -89624-4 0  9998,2 55919  70.0005 116.6348 0002040 256.9289 103.1642 14.98330348 46661,6950.192,96.107,573.475,570.639,0.0
55919.0,STARLINK-5871,PAYLOAD,2024-01-17 13:51:11,14.98327806,0.000248,70.0006,116.4678,266.5703,93.5173,2.309e-06,-6.5e-07,0.0,0 STARLINK-5871,1 55919U 23037F   24017.57721742 -.00000065  00000-0  23090-5 0  9994,2 55919  70.0006 116.4678 0002480 266.5703  93.5173 14.98327806 46332,6950.2,96.107,573.788,570.341,0.0
55919.0,STARLINK-5871,PAYLOAD,2024-01-17 15:27:19,14.98353202,0.0002062,70.0008,116.2994,256.3227,103.7702,-0.00039685,-4.827e-05,0.0,0 STARLINK-5871,1 55919U 23037F   24017.64397069 -.00004827  00000-0 -39685-3 0  9999,2 55919  70.0008 116.2994 0002062 256.3227 103.7702 14.98353202 46686,6950.121,96.106,573.419,570.553,0.0
55919.0,STARLINK-5871,PAYLOAD,2024-01-18 12:17:04,14.98326754,0.0002712,70.0005,114.1122,259.3234,100.762,4.6519e-05,4.62e-06,0.0,0 STARLINK-5871,1 55919U 23037F   24018.51185753  .00000462  00000-0  46519-4 0  9995,2 55919  70.0005 114.1122 0002712 259.3234 100.7620 14.98326754 46819,6950.203,96.107,573.953,570.183,0.0
55919.0,STARLINK-5871,PAYLOAD,2024-01-18 13:53:12,14.98326187,0.0002539,70.0007,113.9436,254.8838,105.2041,4.6869e-05,4.66e-06,0.0,0 STARLINK-5871,1 55919U 23037F   24018.57861723  .00000466  00000-0  46869-4 0  9991,2 55919  70.0007 113.9436 0002539 254.8838 105.2041 14.98326187 46483,6950.205,96.107,573.834,570.305,0.0
55919.0,STARLINK-5871,PAYLOAD,2024-01-18 15:29:20,14.98328401,0.0002552,70.0009,113.7759,251.5012,108.587,7.3028e-05,7.78e-06,0.0,0 STARLINK-5871,1 55919U 23037F   24018.64537590  .00000778  00000-0  73028-4 0  9994,2 55919  70.0009 113.7759 0002552 251.5012 108.5870 14.98328401 46492,6950.198,96.107,573.837,570.289,0.0
55919.0,STARLINK-5871,PAYLOAD,2024-01-19 12:19:05,14.98333031,0.0002646,70.0008,111.5883,251.9645,108.1226,3.2143e-05,2.91e-06,0.0,0 STARLINK-5871,1 55919U 23037F   24019.51325238  .00000291  00000-0  32143-4 0  9998,2 55919  70.0008 111.5883 0002646 251.9645 108.1226 14.98333031 46963,6950.184,96.107,573.888,570.209,0.0
55919.0,STARLINK-5871,PAYLOAD,2024-01-19 13:55:12,14.98333933,0.000263,70.0009,111.4201,251.083,109.0044,4.2641e-05,4.16e-06,0.0,0 STARLINK-5871,1 55919U 23037F   24019.58001121  .00000416  00000-0  42641-4 0  9990,2 55919  70.0009 111.4201 0002630 251.0830 109.0044 14.98333933 46630,6950.181,96.107,573.874,570.218,0.0
55919.0,STARLINK-5871,PAYLOAD,2024-01-19 15:31:21,14.9832735,0.0002753,70.0002,111.2496,262.2486,97.836,0.00021132,2.429e-05,0.0,0 STARLINK-5871,1 55919U 23037F   24019.64677137  .00002429  00000-0  21132-3 0  9990,2 55919  70.0002 111.2496 0002753 262.2486  97.8360 14.98327350 46646,6950.201,96.107,573.979,570.153,0.0
55919.0,STARLINK-5871,PAYLOAD,2024-01-20 13:57:14,14.98330222,0.000272,70.0005,108.8942,258.5215,101.5639,1.4728e-06,-7.5e-07,0.0,0 STARLINK-5871,1 55919U 23037F   24020.58141346 -.00000075  00000-0  14728-5 0  9994,2 55919  70.0005 108.8942 0002720 258.5215 101.5639 14.98330222 46788,6950.192,96.107,573.948,570.167,0.0
55919.0,STARLINK-5871,PAYLOAD,2024-01-20 15:33:22,14.98330545,0.0002721,70.0005,108.7258,258.6505,101.4349,4.4417e-06,-4e-07,0.0,0 STARLINK-5871,1 55919U 23037F   24020.64817314 -.00000040  00000-0  44417-5 0  9996,2 55919  70.0005 108.7258 0002721 258.6505 101.4349 14.98330545 47136,6950.191,96.107,573.947,570.165,0.0
55919.0,STARLINK-5871,PAYLOAD,2024-01-21 05:58:34,14.98331431,0.0002748,70.0003,107.2098,265.0795,95.005,-2.5911e-05,-4.02e-06,0.0,0 STARLINK-5871,1 55919U 23037F   24021.24901339 -.00000402  00000-0 -25911-4 0  9994,2 55919  70.0003 107.2098 0002748 265.0795  95.0050 14.98331431 46885,6950.188,96.107,573.963,570.144,0.0
55919.0,STARLINK-5871,PAYLOAD,2024-01-21 15:35:23,14.98323862,0.0002599,70.0005,106.1995,263.3193,96.767,0.00020894,2.401e-05,0.0,0 STARLINK-5871,1 55919U 23037F   24021.64957185  .00002401  00000-0  20894-3 0  9991,2 55919  70.0005 106.1995 0002599 263.3193  96.7670 14.98323862 47288,6950.212,96.107,573.883,570.271,0.0
55919.0,STARLINK-5871,PAYLOAD,2024-01-22 06:00:35,14.98329413,0.0002548,70.0009,104.6867,254.9742,105.1135,4.0382e-05,3.89e-06,0.0,0 STARLINK-5871,1 55919U 23037F   24022.25041104  .00000389  00000-0  40382-4 0  9992,2 55919  70.0009 104.6867 0002548 254.9742 105.1135 14.98329413 47035,6950.195,96.107,573.831,570.289,0.0
55919.0,STARLINK-5871,PAYLOAD,2024-01-22 15:37:23,14.98329564,0.0002567,70.0009,103.6767,256.1593,103.9281,3.3961e-05,3.12e-06,0.0,0 STARLINK-5871,1 55919U 23037F   24022.65097128  .00000312  00000-0  33961-4 0  9994,2 55919  70.0009 103.6767 0002567 256.1593 103.9281 14.98329564 47431,6950.194,96.107,573.843,570.275,0.0
55919.0,STARLINK-5871,PAYLOAD,2024-01-23 06:02:36,14.98334099,0.0002595,70.0007,102.1616,258.0494,102.0374,3.6806e-05,3.46e-06,0.0,0 STARLINK-5871,1 55919U 23037F   24023.25180775  .00000346  00000-0  36806-4 0  9990,2 55919  70.0007 102.1616 0002595 258.0494 102.0374 14.98334099 47182,6950.18,96.107,573.849,570.242,0.0
55919.0,STARLINK-5871,PAYLOAD,2024-01-23 14:03:16,14.98335384,0.000257,70.0008,101.3202,257.2786,102.8086,5.1089e-05,5.17e-06,0.0,0 STARLINK-5871,1 55919U 23037F   24023.58560573  .00000517  00000-0  51089-4 0  9994,2 55919  70.0008 101.3202 0002570 257.2786 102.8086 14.98335384 47235,6950.176,96.107,573.827,570.255,0.0
55919.0,STARLINK-5871,PAYLOAD,2024-01-24 10:53:01,14.98324645,0.0002507,70.0017,99.1333,234.8447,125.2478,-9.8442e-06,-2.1e-06,0.0,0 STARLINK-5871,1 55919U 23037F   24024.45349325 -.00000210  00000-0 -98442-5 0  9998,2 55919  70.0017  99.1333 0002507 234.8447 125.2478 14.98324645 47703,6950.209,96.107,573.817,570.332,0.0
55919.0,STARLINK-5871,PAYLOAD,2024-01-24 14:05:18,14.98322159,0.0002573,70.0008,98.7956,253.3143,106.7733,-6.5666e-05,-8.76e-06,0.0,0 STARLINK-5871,1 55919U 23037F   24024.58701773 -.00000876  00000-0 -65666-4 0  9990,2 55919  70.0008  98.7956 0002573 253.3143 106.7733 14.98322159 47381,6950.217,96.108,573.87,570.294,0.0
